{
"type": "FeatureCollection",
"name": "dre_dawa",
"crs": { "type": "name", "properties": { "name": "urn:ogc:def:crs:OGC:1.3:CRS84" } },
"features": [
{ "type": "Feature", "properties": { "ADM3_EN": "Addis Ketema (DD)", "ADM3_PCODE": "ET150109", "ADM2_EN": "Dire Dawa urban", "ADM2_PCODE": "ET1501", "ADM1_EN": "Dire Dawa", "ADM1_PCODE": "ET15", "station": "dechatu" }, "geometry": { "type": "MultiPolygon", "coordinates": [ [ [ [ 41.867613064000068, 9.598779384000068 ], [ 41.869419248000042, 9.598764408000022 ], [ 41.872640283000067, 9.599167922000049 ], [ 41.873796238000068, 9.599158321000061 ], [ 41.874600566000026, 9.598577980000073 ], [ 41.875288812000065, 9.597941238000033 ], [ 41.876511831000073, 9.597067681000055 ], [ 41.877089007000052, 9.597218763000058 ], [ 41.883084644000064, 9.598569893000047 ], [ 41.882982654000045, 9.597901480000075 ], [ 41.883941487000072, 9.597367640000073 ], [ 41.885090950000063, 9.596593186000064 ], [ 41.885182827000051, 9.596066572000041 ], [ 41.885041196000032, 9.595946802000071 ], [ 41.88372739700003, 9.594835787000022 ], [ 41.883426691000068, 9.593451962000074 ], [ 41.882981095000048, 9.59202153800004 ], [ 41.883451815000058, 9.590726897000025 ], [ 41.885284035000041, 9.590950655000029 ], [ 41.885484074000033, 9.590911701000039 ], [ 41.886822825000024, 9.590651002000072 ], [ 41.887194072000057, 9.589874511000062 ], [ 41.886274627000034, 9.589080828000021 ], [ 41.884383344000071, 9.587566844000037 ], [ 41.881934776000037, 9.585651142000074 ], [ 41.879582215000028, 9.583823608000046 ], [ 41.879316657000061, 9.583617312000058 ], [ 41.877814757000067, 9.582578086000069 ], [ 41.876502695000056, 9.581202641000061 ], [ 41.87644003500003, 9.579482188000043 ], [ 41.876523474000066, 9.577951742000039 ], [ 41.876941225000053, 9.576083889000074 ], [ 41.87726708100007, 9.574742652000054 ], [ 41.875968339000053, 9.574944644000027 ], [ 41.873949990000028, 9.575487230000022 ], [ 41.871788753000033, 9.576222211000072 ], [ 41.869671248000031, 9.576430962000074 ], [ 41.868371684000067, 9.57653732600005 ], [ 41.865922651000062, 9.577418070000022 ], [ 41.863663042000042, 9.577914795000027 ], [ 41.862069283000039, 9.577402097000061 ], [ 41.860183351000046, 9.576509357000077 ], [ 41.858783448000054, 9.57613845700007 ], [ 41.857317502000058, 9.575698484000043 ], [ 41.857302781000044, 9.575823813000056 ], [ 41.854852502000028, 9.576561079000044 ], [ 41.85260164500005, 9.578109389000076 ], [ 41.849485428000037, 9.579856027000062 ], [ 41.84783277300005, 9.580945243000031 ], [ 41.844476873000076, 9.582837239000071 ], [ 41.840592319000052, 9.584876965000035 ], [ 41.837955216000069, 9.586332766000055 ], [ 41.835751966000032, 9.587832809000076 ], [ 41.835497878000069, 9.588278371000058 ], [ 41.835039823000045, 9.589081605000047 ], [ 41.833859530000041, 9.59195965400005 ], [ 41.833413676000077, 9.59337359500006 ], [ 41.832894182000075, 9.594620815000042 ], [ 41.83219155300003, 9.597016891000067 ], [ 41.831963036000047, 9.59850076400005 ], [ 41.84804673900004, 9.597602449000021 ], [ 41.851518257000066, 9.598004109000044 ], [ 41.855116248000058, 9.596253435000051 ], [ 41.857142788000033, 9.596666958000071 ], [ 41.860764793000044, 9.597784363000073 ], [ 41.860497394000049, 9.598637509000071 ], [ 41.861540171000058, 9.598915718000057 ], [ 41.861429391000058, 9.599490299000024 ], [ 41.86097085800003, 9.599953023000069 ], [ 41.861093198000049, 9.600755141000036 ], [ 41.86063659000007, 9.60144731500003 ], [ 41.861218913000073, 9.601958796000076 ], [ 41.86259188300005, 9.603123445000051 ], [ 41.862817646000053, 9.601328878000061 ], [ 41.864251559000024, 9.600002362000055 ], [ 41.865567057000078, 9.598915850000026 ], [ 41.867613064000068, 9.598779384000068 ] ] ] ] } },
{ "type": "Feature", "properties": { "ADM3_EN": "Dechatu", "ADM3_PCODE": "ET150111", "ADM2_EN": "Dire Dawa urban", "ADM2_PCODE": "ET1501", "ADM1_EN": "Dire Dawa", "ADM1_PCODE": "ET15", "station": "dechatu" }, "geometry": { "type": "MultiPolygon", "coordinates": [ [ [ [ 41.886459006000052, 9.604565105000063 ], [ 41.887264842000036, 9.603028639000058 ], [ 41.887833498000077, 9.601924391000068 ], [ 41.88878543900006, 9.60057792200007 ], [ 41.88935530200007, 9.599617077000062 ], [ 41.889085455000043, 9.598750920000043 ], [ 41.889058212000066, 9.598663473000045 ], [ 41.888241449000077, 9.598909315000071 ], [ 41.886456542000076, 9.598589581000056 ], [ 41.885573971000042, 9.598519708000026 ], [ 41.884817747000056, 9.598459837000064 ], [ 41.883084644000064, 9.598569893000047 ], [ 41.877089007000052, 9.597218763000058 ], [ 41.876511831000073, 9.597067681000055 ], [ 41.875288812000065, 9.597941238000033 ], [ 41.874600566000026, 9.598577980000073 ], [ 41.873796238000068, 9.599158321000061 ], [ 41.872640283000067, 9.599167922000049 ], [ 41.869419248000042, 9.598764408000022 ], [ 41.867613064000068, 9.598779384000068 ], [ 41.865567057000078, 9.598915850000026 ], [ 41.864251559000024, 9.600002362000055 ], [ 41.862817646000053, 9.601328878000061 ], [ 41.86259188300005, 9.603123445000051 ], [ 41.863800046000051, 9.603591495000046 ], [ 41.867047207000041, 9.603086536000035 ], [ 41.868008506000081, 9.602839539000058 ], [ 41.870173937000061, 9.602582548000044 ], [ 41.870308132000048, 9.601886424000043 ], [ 41.873181264000038, 9.60163016100006 ], [ 41.876880822000032, 9.601656774000048 ], [ 41.877866295000047, 9.601992769000049 ], [ 41.878963971000076, 9.601926267000067 ], [ 41.879779445000054, 9.602665230000071 ], [ 41.880132538000055, 9.603408042000069 ], [ 41.882510996000065, 9.60442080100006 ], [ 41.883606731000043, 9.604124837000029 ], [ 41.884417847000066, 9.604347533000066 ], [ 41.885227990000033, 9.604455504000043 ], [ 41.886459006000052, 9.604565105000063 ] ] ] ] } },
{ "type": "Feature", "properties": { "ADM3_EN": "Gende Kore", "ADM3_PCODE": "ET150110", "ADM2_EN": "Dire Dawa urban", "ADM2_PCODE": "ET1501", "ADM1_EN": "Dire Dawa", "ADM1_PCODE": "ET15", "station": "st1" }, "geometry": { "type": "MultiPolygon", "coordinates": [ [ [ [ 41.86063659000007, 9.60144731500003 ], [ 41.861093198000049, 9.600755141000036 ], [ 41.86097085800003, 9.599953023000069 ], [ 41.861429391000058, 9.599490299000024 ], [ 41.861540171000058, 9.598915718000057 ], [ 41.860497394000049, 9.598637509000071 ], [ 41.860764793000044, 9.597784363000073 ], [ 41.857142788000033, 9.596666958000071 ], [ 41.855116248000058, 9.596253435000051 ], [ 41.851518257000066, 9.598004109000044 ], [ 41.849628968000047, 9.600376914000037 ], [ 41.849715453000044, 9.601881672000047 ], [ 41.850412885000026, 9.602334861000031 ], [ 41.851111760000038, 9.602960136000036 ], [ 41.851006244000075, 9.604165711000064 ], [ 41.851932480000073, 9.604330173000051 ], [ 41.85297431500004, 9.604493679000029 ], [ 41.853723788000025, 9.604258027000071 ], [ 41.853834580000068, 9.603683445000058 ], [ 41.854699648000064, 9.603446837000035 ], [ 41.855740037000032, 9.603438247000042 ], [ 41.856537201000037, 9.601997496000024 ], [ 41.858032275000028, 9.601067279000063 ], [ 41.859075060000066, 9.601345494000043 ], [ 41.859601027000053, 9.602029544000061 ], [ 41.86063659000007, 9.60144731500003 ] ] ] ] } },
{ "type": "Feature", "properties": { "ADM3_EN": "Hafat Issa", "ADM3_PCODE": "ET150112", "ADM2_EN": "Dire Dawa urban", "ADM2_PCODE": "ET1501", "ADM1_EN": "Dire Dawa", "ADM1_PCODE": "ET15", "station": "dechatu" }, "geometry": { "type": "MultiPolygon", "coordinates": [ [ [ [ 41.870173937000061, 9.602582548000044 ], [ 41.868008506000081, 9.602839539000058 ], [ 41.867047207000041, 9.603086536000035 ], [ 41.863800046000051, 9.603591495000046 ], [ 41.86259188300005, 9.603123445000051 ], [ 41.863954746000047, 9.604230804000053 ], [ 41.866101516000072, 9.605188241000064 ], [ 41.867383722000056, 9.60643966400005 ], [ 41.868196777000037, 9.606891848000032 ], [ 41.868648829000051, 9.607375708000063 ], [ 41.869853989000035, 9.607485217000033 ], [ 41.871542824000073, 9.60782972800007 ], [ 41.872246590000032, 9.607317149000039 ], [ 41.872300034000034, 9.606800412000041 ], [ 41.87286834400004, 9.605648372000076 ], [ 41.873495903000048, 9.604667937000045 ], [ 41.873316699000043, 9.60398103600005 ], [ 41.872733392000043, 9.603354858000046 ], [ 41.871805714000061, 9.60301836800005 ], [ 41.870765825000035, 9.603084368000054 ], [ 41.870173937000061, 9.602582548000044 ] ] ] ] } },
{ "type": "Feature", "properties": { "ADM3_EN": "Kazira", "ADM3_PCODE": "ET150113", "ADM2_EN": "Dire Dawa urban", "ADM2_PCODE": "ET1501", "ADM1_EN": "Dire Dawa", "ADM1_PCODE": "ET15", "station": "dechatu" }, "geometry": { "type": "MultiPolygon", "coordinates": [ [ [ [ 41.853278860000046, 9.673743065000053 ], [ 41.864482603000056, 9.630843875000039 ], [ 41.863894959000049, 9.629166503000022 ], [ 41.864007321000031, 9.628209466000044 ], [ 41.865813667000054, 9.628194464000046 ], [ 41.866767974000027, 9.627110919000074 ], [ 41.867590760000041, 9.62471382800004 ], [ 41.866975546000049, 9.623165275000076 ], [ 41.866594127000042, 9.620778188000031 ], [ 41.866455572000064, 9.618628109000042 ], [ 41.867643643000065, 9.616706040000054 ], [ 41.868344993000051, 9.61419045100007 ], [ 41.866764458000034, 9.612410880000027 ], [ 41.866631960000063, 9.610977825000077 ], [ 41.868069911000077, 9.610129304000054 ], [ 41.869026190000056, 9.609284778000074 ], [ 41.868648829000051, 9.607375708000063 ], [ 41.868196777000037, 9.606891848000032 ], [ 41.867383722000056, 9.60643966400005 ], [ 41.866101516000072, 9.605188241000064 ], [ 41.863954746000047, 9.604230804000053 ], [ 41.86259188300005, 9.603123445000051 ], [ 41.861218913000073, 9.601958796000076 ], [ 41.86063659000007, 9.60144731500003 ], [ 41.859601027000053, 9.602029544000061 ], [ 41.859075060000066, 9.601345494000043 ], [ 41.858032275000028, 9.601067279000063 ], [ 41.856537201000037, 9.601997496000024 ], [ 41.855740037000032, 9.603438247000042 ], [ 41.854699648000064, 9.603446837000035 ], [ 41.853834580000068, 9.603683445000058 ], [ 41.853723788000025, 9.604258027000071 ], [ 41.85297431500004, 9.604493679000029 ], [ 41.851932480000073, 9.604330173000051 ], [ 41.851006244000075, 9.604165711000064 ], [ 41.851111760000038, 9.602960136000036 ], [ 41.850412885000026, 9.602334861000031 ], [ 41.849715453000044, 9.601881672000047 ], [ 41.849628968000047, 9.600376914000037 ], [ 41.848491313000068, 9.60180570600005 ], [ 41.847536980000029, 9.602889197000025 ], [ 41.847663391000026, 9.60360524500004 ], [ 41.848997965000081, 9.604789398000037 ], [ 41.848157049000065, 9.605035355000041 ], [ 41.846720041000026, 9.606003309000073 ], [ 41.847209704000079, 9.606955394000067 ], [ 41.848781129000031, 9.607659535000039 ], [ 41.849978300000032, 9.60681306500004 ], [ 41.85082622300007, 9.607403645000034 ], [ 41.85143531500006, 9.608235222000076 ], [ 41.852525080000078, 9.608943315000033 ], [ 41.854705624000076, 9.610478993000072 ], [ 41.854957487000036, 9.611791566000022 ], [ 41.854241994000063, 9.612634075000074 ], [ 41.855457213000079, 9.61393868600004 ], [ 41.854504890000044, 9.615261211000075 ], [ 41.853673984000068, 9.616702246000045 ], [ 41.852237962000061, 9.617789737000066 ], [ 41.851410048000048, 9.619589289000032 ], [ 41.852267034000079, 9.621255409000071 ], [ 41.852153631000078, 9.622092945000077 ], [ 41.85002430600008, 9.623587504000056 ], [ 41.850375523000025, 9.625257804000057 ], [ 41.850192469000035, 9.62640665400005 ], [ 41.849001055000031, 9.62794628000006 ], [ 41.848768625000048, 9.628952122000044 ], [ 41.846749890000069, 9.629494653000052 ], [ 41.845792093000057, 9.63017184000006 ], [ 41.845514687000048, 9.631560501000024 ], [ 41.846340397000063, 9.632366386000058 ], [ 41.847164908000025, 9.633028861000071 ], [ 41.847124755000038, 9.633985309000025 ], [ 41.846562740000024, 9.635902185000077 ], [ 41.845774930000061, 9.636745294000036 ], [ 41.846226513000033, 9.638892829000042 ], [ 41.847016109000037, 9.641133181000043 ], [ 41.848083515000042, 9.64203266800007 ], [ 41.837746207000066, 9.662184271000058 ], [ 41.853278860000046, 9.673743065000053 ] ] ] ] } },
{ "type": "Feature", "properties": { "ADM3_EN": "Legehare", "ADM3_PCODE": "ET150105", "ADM2_EN": "Dire Dawa urban", "ADM2_PCODE": "ET1501", "ADM1_EN": "Dire Dawa", "ADM1_PCODE": "ET15", "station": "dechatu" }, "geometry": { "type": "MultiPolygon", "coordinates": [ [ [ [ 41.886459006000052, 9.604565105000063 ], [ 41.885227990000033, 9.604455504000043 ], [ 41.884417847000066, 9.604347533000066 ], [ 41.883606731000043, 9.604124837000029 ], [ 41.882510996000065, 9.60442080100006 ], [ 41.880132538000055, 9.603408042000069 ], [ 41.879779445000054, 9.602665230000071 ], [ 41.878963971000076, 9.601926267000067 ], [ 41.877866295000047, 9.601992769000049 ], [ 41.876880822000032, 9.601656774000048 ], [ 41.873181264000038, 9.60163016100006 ], [ 41.870308132000048, 9.601886424000043 ], [ 41.870173937000061, 9.602582548000044 ], [ 41.870765825000035, 9.603084368000054 ], [ 41.871805714000061, 9.60301836800005 ], [ 41.872733392000043, 9.603354858000046 ], [ 41.873316699000043, 9.60398103600005 ], [ 41.873495903000048, 9.604667937000045 ], [ 41.87286834400004, 9.605648372000076 ], [ 41.872300034000034, 9.606800412000041 ], [ 41.872246590000032, 9.607317149000039 ], [ 41.871542824000073, 9.60782972800007 ], [ 41.876725712000052, 9.608384190000038 ], [ 41.878765688000044, 9.607530624000049 ], [ 41.880203581000046, 9.60668206500003 ], [ 41.882119074000059, 9.605351475000077 ], [ 41.883570103000068, 9.606056443000057 ], [ 41.884842455000069, 9.607064426000022 ], [ 41.886459006000052, 9.604565105000063 ] ] ] ] } },
{ "type": "Feature", "properties": { "ADM3_EN": "Malka Jabti /M.Jebdu)", "ADM3_PCODE": "ET150104", "ADM2_EN": "Dire Dawa urban", "ADM2_PCODE": "ET1501", "ADM1_EN": "Dire Dawa", "ADM1_PCODE": "ET15", "station": "st2" }, "geometry": { "type": "MultiPolygon", "coordinates": [ [ [ [ 41.771586704000072, 9.618014112000026 ], [ 41.771894829000075, 9.620354270000064 ], [ 41.772743777000073, 9.624028728000042 ], [ 41.773350329000039, 9.627513893000071 ], [ 41.773850651000032, 9.629090443000052 ], [ 41.772957010000027, 9.630860777000066 ], [ 41.771815285000059, 9.632638880000059 ], [ 41.770800032000068, 9.635157003000074 ], [ 41.768519258000026, 9.639047849000065 ], [ 41.767231795000043, 9.640683695000064 ], [ 41.766130394000072, 9.641505292000033 ], [ 41.764791618000061, 9.642759073000036 ], [ 41.763159883000071, 9.643537112000047 ], [ 41.762346348000051, 9.644212965000065 ], [ 41.760679702000061, 9.643972814000051 ], [ 41.773828470000069, 9.653703360000065 ], [ 41.790998523000042, 9.64903330900006 ], [ 41.799111258000039, 9.643684069000074 ], [ 41.799580227000035, 9.643374848000065 ], [ 41.801038541000025, 9.642413289000046 ], [ 41.804599376000056, 9.641546376000065 ], [ 41.808388784000044, 9.640623815000026 ], [ 41.808678563000058, 9.64055326600004 ], [ 41.815652471000078, 9.645742976000065 ], [ 41.816505798000037, 9.642220596000072 ], [ 41.816964508000069, 9.639444039000068 ], [ 41.817762805000029, 9.636951547000024 ], [ 41.817946764000055, 9.635898290000057 ], [ 41.818655852000063, 9.634267055000066 ], [ 41.818970831000058, 9.631587290000027 ], [ 41.819863865000059, 9.628902800000049 ], [ 41.819801806000044, 9.627230065000049 ], [ 41.820527624000079, 9.624714269000037 ], [ 41.820947668000031, 9.623085401000026 ], [ 41.821560788000056, 9.621502761000045 ], [ 41.822513474000061, 9.620204188000059 ], [ 41.821196642000075, 9.618475009000065 ], [ 41.820887403000029, 9.616039383000043 ], [ 41.822305118000031, 9.612729127000023 ], [ 41.823149553000064, 9.609997238000062 ], [ 41.823836392000032, 9.605689012000028 ], [ 41.824683191000076, 9.603243948000056 ], [ 41.824642765000078, 9.598367984000049 ], [ 41.823623998000073, 9.595936031000065 ], [ 41.823622123000064, 9.595940216000031 ], [ 41.822914567000055, 9.597519446000035 ], [ 41.822780361000071, 9.598763520000034 ], [ 41.821588066000061, 9.600207454000042 ], [ 41.820580910000047, 9.600741544000073 ], [ 41.818852822000053, 9.601472737000051 ], [ 41.817513625000061, 9.602631019000057 ], [ 41.816371436000054, 9.604313571000034 ], [ 41.814738864000049, 9.604948358000058 ], [ 41.812910846000079, 9.60525007800004 ], [ 41.810947789000068, 9.60670026400004 ], [ 41.809922227000072, 9.607927689000064 ], [ 41.808625222000046, 9.608368497000072 ], [ 41.807794390000026, 9.609543070000029 ], [ 41.807672886000034, 9.609714842000074 ], [ 41.806811364000055, 9.61039114600004 ], [ 41.805612257000064, 9.611022381000055 ], [ 41.803929482000058, 9.61141850000007 ], [ 41.803118872000027, 9.612429037000027 ], [ 41.802213492000078, 9.613631573000021 ], [ 41.80062939700008, 9.614313727000024 ], [ 41.798219717000052, 9.614189832000022 ], [ 41.795140366000055, 9.614645034000034 ], [ 41.791677597000046, 9.615342349000059 ], [ 41.789296489000037, 9.61576795600007 ], [ 41.787225934000048, 9.615880287000039 ], [ 41.785816064000073, 9.614313989000038 ], [ 41.784309083000039, 9.61265284600006 ], [ 41.781703581000045, 9.612147941000046 ], [ 41.779444254000055, 9.612739827000041 ], [ 41.777234258000078, 9.613474727000039 ], [ 41.77598415600005, 9.613771626000073 ], [ 41.774589539000033, 9.614069683000025 ], [ 41.77305040400006, 9.614368894000052 ], [ 41.771418038000036, 9.615051318000042 ], [ 41.771586704000072, 9.618014112000026 ] ] ] ] } },
{ "type": "Feature", "properties": { "ADM3_EN": "Police Maret", "ADM3_PCODE": "ET150114", "ADM2_EN": "Dire Dawa urban", "ADM2_PCODE": "ET1501", "ADM1_EN": "Dire Dawa", "ADM1_PCODE": "ET15", "station": "dechatu" }, "geometry": { "type": "MultiPolygon", "coordinates": [ [ [ [ 41.862040197000056, 9.678193904000068 ], [ 41.873419140000067, 9.630592871000033 ], [ 41.874356212000066, 9.629961583000068 ], [ 41.876325474000055, 9.62927589800006 ], [ 41.878200008000078, 9.628782214000069 ], [ 41.879789171000027, 9.628721145000043 ], [ 41.880016235000028, 9.62709389500003 ], [ 41.880250998000065, 9.626374866000049 ], [ 41.882165160000056, 9.624876942000071 ], [ 41.883038995000049, 9.623910968000075 ], [ 41.882421726000075, 9.622668883000074 ], [ 41.881325593000042, 9.621219999000061 ], [ 41.879331291000028, 9.618942019000031 ], [ 41.877919875000032, 9.617232819000037 ], [ 41.876799902000073, 9.615808010000023 ], [ 41.877367393000043, 9.614560361000031 ], [ 41.878275280000025, 9.613692313000058 ], [ 41.879472163000059, 9.61282185500005 ], [ 41.880338754000036, 9.61276682700003 ], [ 41.881345390000035, 9.612184777000039 ], [ 41.881963049000035, 9.61117573100006 ], [ 41.882674609000048, 9.609879074000048 ], [ 41.883985601000063, 9.608266687000025 ], [ 41.884842455000069, 9.607064426000022 ], [ 41.883570103000068, 9.606056443000057 ], [ 41.882119074000059, 9.605351475000077 ], [ 41.880203581000046, 9.60668206500003 ], [ 41.878765688000044, 9.607530624000049 ], [ 41.876725712000052, 9.608384190000038 ], [ 41.871542824000073, 9.60782972800007 ], [ 41.869853989000035, 9.607485217000033 ], [ 41.868648829000051, 9.607375708000063 ], [ 41.869026190000056, 9.609284778000074 ], [ 41.868069911000077, 9.610129304000054 ], [ 41.866631960000063, 9.610977825000077 ], [ 41.866764458000034, 9.612410880000027 ], [ 41.868344993000051, 9.61419045100007 ], [ 41.867643643000065, 9.616706040000054 ], [ 41.866455572000064, 9.618628109000042 ], [ 41.866594127000042, 9.620778188000031 ], [ 41.866975546000049, 9.623165275000076 ], [ 41.867590760000041, 9.62471382800004 ], [ 41.866767974000027, 9.627110919000074 ], [ 41.865813667000054, 9.628194464000046 ], [ 41.864007321000031, 9.628209466000044 ], [ 41.863894959000049, 9.629166503000022 ], [ 41.864482603000056, 9.630843875000039 ], [ 41.853278860000046, 9.673743065000053 ], [ 41.862040197000056, 9.678193904000068 ] ] ] ] } },
{ "type": "Feature", "properties": { "ADM3_EN": "Sabian", "ADM3_PCODE": "ET150103", "ADM2_EN": "Dire Dawa urban", "ADM2_PCODE": "ET1501", "ADM1_EN": "Dire Dawa", "ADM1_PCODE": "ET15", "station": "st3" }, "geometry": { "type": "MultiPolygon", "coordinates": [ [ [ [ 41.824544674000038, 9.652360206000026 ], [ 41.830951636000066, 9.657128017000048 ], [ 41.837746207000066, 9.662184271000058 ], [ 41.848083515000042, 9.64203266800007 ], [ 41.847016109000037, 9.641133181000043 ], [ 41.846226513000033, 9.638892829000042 ], [ 41.845774930000061, 9.636745294000036 ], [ 41.846562740000024, 9.635902185000077 ], [ 41.847124755000038, 9.633985309000025 ], [ 41.847164908000025, 9.633028861000071 ], [ 41.846340397000063, 9.632366386000058 ], [ 41.845514687000048, 9.631560501000024 ], [ 41.845792093000057, 9.63017184000006 ], [ 41.846749890000069, 9.629494653000052 ], [ 41.848768625000048, 9.628952122000044 ], [ 41.849001055000031, 9.62794628000006 ], [ 41.850192469000035, 9.62640665400005 ], [ 41.850375523000025, 9.625257804000057 ], [ 41.85002430600008, 9.623587504000056 ], [ 41.852153631000078, 9.622092945000077 ], [ 41.852267034000079, 9.621255409000071 ], [ 41.851410048000048, 9.619589289000032 ], [ 41.852237962000061, 9.617789737000066 ], [ 41.853673984000068, 9.616702246000045 ], [ 41.854504890000044, 9.615261211000075 ], [ 41.855457213000079, 9.61393868600004 ], [ 41.854241994000063, 9.612634075000074 ], [ 41.854957487000036, 9.611791566000022 ], [ 41.854705624000076, 9.610478993000072 ], [ 41.852525080000078, 9.608943315000033 ], [ 41.85143531500006, 9.608235222000076 ], [ 41.85082622300007, 9.607403645000034 ], [ 41.849978300000032, 9.60681306500004 ], [ 41.848781129000031, 9.607659535000039 ], [ 41.847209704000079, 9.606955394000067 ], [ 41.846720041000026, 9.606003309000073 ], [ 41.848157049000065, 9.605035355000041 ], [ 41.848997965000081, 9.604789398000037 ], [ 41.847663391000026, 9.60360524500004 ], [ 41.847536980000029, 9.602889197000025 ], [ 41.848491313000068, 9.60180570600005 ], [ 41.849628968000047, 9.600376914000037 ], [ 41.851518257000066, 9.598004109000044 ], [ 41.84804673900004, 9.597602449000021 ], [ 41.831963036000047, 9.59850076400005 ], [ 41.831199522000077, 9.599367531000041 ], [ 41.830530750000037, 9.600042295000037 ], [ 41.829088924000075, 9.600436543000058 ], [ 41.827735492000045, 9.599873929000069 ], [ 41.827050052000061, 9.598540944000035 ], [ 41.82602230100008, 9.596589263000055 ], [ 41.825338858000066, 9.595495288000052 ], [ 41.824129890000052, 9.595264 ], [ 41.823623998000073, 9.595936031000065 ], [ 41.824642765000078, 9.598367984000049 ], [ 41.824683191000076, 9.603243948000056 ], [ 41.823836392000032, 9.605689012000028 ], [ 41.823149553000064, 9.609997238000062 ], [ 41.822305118000031, 9.612729127000023 ], [ 41.820887403000029, 9.616039383000043 ], [ 41.821196642000075, 9.618475009000065 ], [ 41.822513474000061, 9.620204188000059 ], [ 41.821560788000056, 9.621502761000045 ], [ 41.820947668000031, 9.623085401000026 ], [ 41.820527624000079, 9.624714269000037 ], [ 41.819801806000044, 9.627230065000049 ], [ 41.819863865000059, 9.628902800000049 ], [ 41.818970831000058, 9.631587290000027 ], [ 41.818655852000063, 9.634267055000066 ], [ 41.817946764000055, 9.635898290000057 ], [ 41.817762805000029, 9.636951547000024 ], [ 41.816964508000069, 9.639444039000068 ], [ 41.816505798000037, 9.642220596000072 ], [ 41.815652471000078, 9.645742976000065 ], [ 41.824544674000038, 9.652360206000026 ] ] ] ] } }
]
}
